{
  "type": "FeatureCollection",
  "features": [
    {
      "type": "Feature",
      "properties": {
        "norad_id": 52912,
        "name": "GAOFEN-12 03",
        "group": "resource",
        "lat": -66.00502430610263,
        "lon": -94.0352546973742,
        "alt_km": 638.1697622367064,
        "timestamp": "2025-12-26T21:25:52.664310+00:00",
        "meta_object_name": "GAOFEN-12 03",
        "meta_object_id": "2022-069A",
        "meta_epoch": "2025-12-26T15:14:33.999072",
        "meta_mean_motion": 14.79640176,
        "meta_eccentricity": 0.00017168,
        "meta_inclination": 97.8475,
        "meta_ra_of_asc_node": 247.6629,
        "meta_arg_of_pericenter": 46.5754,
        "meta_mean_anomaly": 313.56,
        "meta_ephemeris_type": 0,
        "meta_classification_type": "U",
        "meta_norad_cat_id": 52912,
        "meta_element_set_no": 999,
        "meta_rev_at_epoch": 18909,
        "meta_bstar": 0.00011405054,
        "meta_mean_motion_dot": 8.05e-06,
        "meta_mean_motion_ddot": 0,
        "tle_line1": "1 52912U 22069A   25360.63511573  .00000805  00000+0  11405-3 0  9991",
        "tle_line2": "2 52912  97.8475 247.6629 0001716  46.5754 313.5600 14.79640176189093"
      },
      "geometry": {
        "type": "Point",
        "coordinates": [
          -94.0352546973742,
          -66.00502430610263
        ]
      }
    },
    {
      "type": "Feature",
      "properties": {
        "norad_id": 54754,
        "name": "SWOT",
        "group": "resource",
        "lat": -11.384785124118338,
        "lon": 90.42197699380074,
        "alt_km": 897.4309178586955,
        "timestamp": "2025-12-26T21:25:52.664321+00:00",
        "meta_object_name": "SWOT",
        "meta_object_id": "2022-173A",
        "meta_epoch": "2025-12-26T13:39:35.369568",
        "meta_mean_motion": 14.00168996,
        "meta_eccentricity": 4.283e-05,
        "meta_inclination": 77.6107,
        "meta_ra_of_asc_node": 268.3222,
        "meta_arg_of_pericenter": 80.6334,
        "meta_mean_anomaly": 279.4866,
        "meta_ephemeris_type": 0,
        "meta_classification_type": "U",
        "meta_norad_cat_id": 54754,
        "meta_element_set_no": 999,
        "meta_rev_at_epoch": 15499,
        "meta_bstar": 9.3697486e-05,
        "meta_mean_motion_dot": 1.36e-06,
        "meta_mean_motion_ddot": 0,
        "tle_line1": "1 54754U 22173A   25360.56915937  .00000136  00000+0  93697-4 0  9998",
        "tle_line2": "2 54754  77.6107 268.3222 0000428  80.6334 279.4866 14.00168996154992"
      },
      "geometry": {
        "type": "Point",
        "coordinates": [
          90.42197699380074,
          -11.384785124118338
        ]
      }
    },
    {
      "type": "Feature",
      "properties": {
        "norad_id": 57654,
        "name": "GAOFEN-12 04",
        "group": "resource",
        "lat": 70.97964981164772,
        "lon": 120.23117842510709,
        "alt_km": 622.5465726536486,
        "timestamp": "2025-12-26T21:25:52.664331+00:00",
        "meta_object_name": "GAOFEN-12 04",
        "meta_object_id": "2023-123A",
        "meta_epoch": "2025-12-26T14:27:23.635296",
        "meta_mean_motion": 14.79739636,
        "meta_eccentricity": 0.00011936,
        "meta_inclination": 97.9129,
        "meta_ra_of_asc_node": 276.15,
        "meta_arg_of_pericenter": 80.5577,
        "meta_mean_anomaly": 279.577,
        "meta_ephemeris_type": 0,
        "meta_classification_type": "U",
        "meta_norad_cat_id": 57654,
        "meta_element_set_no": 999,
        "meta_rev_at_epoch": 12710,
        "meta_bstar": 0.00020102657,
        "meta_mean_motion_dot": 1.46e-05,
        "meta_mean_motion_ddot": 0,
        "tle_line1": "1 57654U 23123A   25360.60235689  .00001460  00000+0  20103-3 0  9992",
        "tle_line2": "2 57654  97.9129 276.1500 0001193  80.5577 279.5770 14.79739636127106"
      },
      "geometry": {
        "type": "Point",
        "coordinates": [
          120.23117842510709,
          70.97964981164772
        ]
      }
    },
    {
      "type": "Feature",
      "properties": {
        "norad_id": 59065,
        "name": "PARS 1",
        "group": "resource",
        "lat": 27.457611233897325,
        "lon": -31.777063140641822,
        "alt_km": 433.50517879957624,
        "timestamp": "2025-12-26T21:25:52.664341+00:00",
        "meta_object_name": "PARS 1",
        "meta_object_id": "2024-039Q",
        "meta_epoch": "2025-12-26T15:04:44.880672",
        "meta_mean_motion": 15.41293571,
        "meta_eccentricity": 0.00113584,
        "meta_inclination": 97.4655,
        "meta_ra_of_asc_node": 331.8596,
        "meta_arg_of_pericenter": 29.5064,
        "meta_mean_anomaly": 330.6821,
        "meta_ephemeris_type": 0,
        "meta_classification_type": "U",
        "meta_norad_cat_id": 59065,
        "meta_element_set_no": 999,
        "meta_rev_at_epoch": 10202,
        "meta_bstar": 0.00031470892,
        "meta_mean_motion_dot": 0.00013051,
        "meta_mean_motion_ddot": 0,
        "tle_line1": "1 59065U 24039Q   25360.62829723  .00013051  00000+0  31471-3 0  9996",
        "tle_line2": "2 59065  97.4655 331.8596 0011358  29.5064 330.6821 15.41293571102028"
      },
      "geometry": {
        "type": "Point",
        "coordinates": [
          -31.777063140641822,
          27.457611233897325
        ]
      }
    },
    {
      "type": "Feature",
      "properties": {
        "norad_id": 59371,
        "name": "RESURS-P 4",
        "group": "resource",
        "lat": 70.91838069498768,
        "lon": -74.6782720691393,
        "alt_km": 461.866586716882,
        "timestamp": "2025-12-26T21:25:52.664351+00:00",
        "meta_object_name": "RESURS-P 4",
        "meta_object_id": "2024-061A",
        "meta_epoch": "2025-12-26T14:50:50.572896",
        "meta_mean_motion": 15.32207935,
        "meta_eccentricity": 8.011e-05,
        "meta_inclination": 97.2563,
        "meta_ra_of_asc_node": 306.6663,
        "meta_arg_of_pericenter": 90.1678,
        "meta_mean_anomaly": 269.9656,
        "meta_ephemeris_type": 0,
        "meta_classification_type": "U",
        "meta_norad_cat_id": 59371,
        "meta_element_set_no": 999,
        "meta_rev_at_epoch": 9733,
        "meta_bstar": 0.00014093005,
        "meta_mean_motion_dot": 4.306e-05,
        "meta_mean_motion_ddot": 0,
        "tle_line1": "1 59371U 24061A   25360.61864089  .00004306  00000+0  14093-3 0  9998",
        "tle_line2": "2 59371  97.2563 306.6663 0000801  90.1678 269.9656 15.32207935 97331"
      },
      "geometry": {
        "type": "Point",
        "coordinates": [
          -74.6782720691393,
          70.91838069498768
        ]
      }
    },
    {
      "type": "Feature",
      "properties": {
        "norad_id": 59625,
        "name": "LEGION 1",
        "group": "resource",
        "lat": -43.864217546432414,
        "lon": -111.8828928748343,
        "alt_km": 520.5677559227051,
        "timestamp": "2025-12-26T21:25:52.664361+00:00",
        "meta_object_name": "LEGION 1",
        "meta_object_id": "2024-081A",
        "meta_epoch": "2025-12-26T14:06:40.693536",
        "meta_mean_motion": 15.16615153,
        "meta_eccentricity": 0.00036522,
        "meta_inclination": 97.5192,
        "meta_ra_of_asc_node": 75.1081,
        "meta_arg_of_pericenter": 252.5393,
        "meta_mean_anomaly": 107.5441,
        "meta_ephemeris_type": 0,
        "meta_classification_type": "U",
        "meta_norad_cat_id": 59625,
        "meta_element_set_no": 999,
        "meta_rev_at_epoch": 9137,
        "meta_bstar": 0.00025780517,
        "meta_mean_motion_dot": 4.972e-05,
        "meta_mean_motion_ddot": 0,
        "tle_line1": "1 59625U 24081A   25360.58797099  .00004972  00000+0  25781-3 0  9999",
        "tle_line2": "2 59625  97.5192  75.1081 0003652 252.5393 107.5441 15.16615153 91375"
      },
      "geometry": {
        "type": "Point",
        "coordinates": [
          -111.8828928748343,
          -43.864217546432414
        ]
      }
    },
    {
      "type": "Feature",
      "properties": {
        "norad_id": 59626,
        "name": "LEGION 2",
        "group": "resource",
        "lat": 44.13108700553602,
        "lon": 68.13613621196833,
        "alt_km": 516.3338255713552,
        "timestamp": "2025-12-26T21:25:52.664371+00:00",
        "meta_object_name": "LEGION 2",
        "meta_object_id": "2024-081B",
        "meta_epoch": "2025-12-26T13:19:03.861120",
        "meta_mean_motion": 15.16629213,
        "meta_eccentricity": 0.00058346,
        "meta_inclination": 97.5196,
        "meta_ra_of_asc_node": 75.1634,
        "meta_arg_of_pericenter": 234.1286,
        "meta_mean_anomaly": 125.9405,
        "meta_ephemeris_type": 0,
        "meta_classification_type": "U",
        "meta_norad_cat_id": 59626,
        "meta_element_set_no": 999,
        "meta_rev_at_epoch": 9137,
        "meta_bstar": 0.00029720652,
        "meta_mean_motion_dot": 5.746e-05,
        "meta_mean_motion_ddot": 0,
        "tle_line1": "1 59626U 24081B   25360.55490580  .00005746  00000+0  29721-3 0  9990",
        "tle_line2": "2 59626  97.5196  75.1634 0005834 234.1286 125.9405 15.16629213 91371"
      },
      "geometry": {
        "type": "Point",
        "coordinates": [
          68.13613621196833,
          44.13108700553602
        ]
      }
    }
  ]
}